{"type": "FeatureCollection", "features": [ {"type": "Feature", "properties": {"norad_id": 37216, "name": "COSMO-SKYMED 4", "group": "resource", "lat": -20.99962067475501, "lon": -16.905859516696264, "alt_km": 628.3289602417226, "timestamp": "2025-12-10T18:56:59.718736+00:00", "meta": {"OBJECT_NAME": "COSMO-SKYMED 4", "OBJECT_ID": "2010-060A", "EPOCH": "2025-12-10T11:33:52.513056", "MEAN_MOTION": 14.82165761, "ECCENTRICITY": 0.0001409, "INCLINATION": 97.8806, "RA_OF_ASC_NODE": 165.8389, "ARG_OF_PERICENTER": 79.4702, "MEAN_ANOMALY": 280.6669, "EPHEMERIS_TYPE": 0, "CLASSIFICATION_TYPE": "U", "NORAD_CAT_ID": 37216, "ELEMENT_SET_NO": 999, "REV_AT_EPOCH": 81661, "BSTAR": 0.00015405, "MEAN_MOTION_DOT": 1.175e-05, "MEAN_MOTION_DDOT": 0}, "tle": {"line1": "1 37216U 10060A   25344.48185779  .00001175  00000+0  15405-3 0  9994", "line2": "2 37216  97.8806 165.8389 0001409  79.4702 280.6669 14.82165761816612"}}, "geometry": {"type": "Point", "coordinates": [-16.905859516696264, -20.99962067475501]}}, {"type": "Feature", "properties": {"norad_id": 37387, "name": "RESOURCESAT-2", "group": "resource", "lat": -49.784403820439586, "lon": -142.1917194918699, "alt_km": 831.5098795966578, "timestamp": "2025-12-10T18:56:59.718746+00:00", "meta": {"OBJECT_NAME": "RESOURCESAT-2", "OBJECT_ID": "2011-015A", "EPOCH": "2025-12-10T11:06:44.311968", "MEAN_MOTION": 14.21595809, "ECCENTRICITY": 0.0006539, "INCLINATION": 98.788, "RA_OF_ASC_NODE": 48.025, "ARG_OF_PERICENTER": 48.4936, "MEAN_ANOMALY": 311.6801, "EPHEMERIS_TYPE": 0, "CLASSIFICATION_TYPE": "U", "NORAD_CAT_ID": 37387, "ELEMENT_SET_NO": 999, "REV_AT_EPOCH": 75936, "BSTAR": 0.00012793, "MEAN_MOTION_DOT": 2.36e-06, "MEAN_MOTION_DDOT": 0}, "tle": {"line1": "1 37387U 11015A   25344.46301287  .00000236  00000+0  12793-3 0  9990", "line2": "2 37387  98.7880  48.0250 0006539  48.4936 311.6801 14.21595809759360"}}, "geometry": {"type": "Point", "coordinates": [-142.1917194918699, -49.784403820439586]}}, {"type": "Feature", "properties": {"norad_id": 37781, "name": "HAIYANG-2A", "group": "resource", "lat": -37.63649593353386, "lon": 158.46460966886968, "alt_km": 975.1632649113435, "timestamp": "2025-12-10T18:56:59.718756+00:00", "meta": {"OBJECT_NAME": "HAIYANG-2A", "OBJECT_ID": "2011-043A", "EPOCH": "2025-12-10T10:55:45.440256", "MEAN_MOTION": 13.78835644, "ECCENTRICITY": 0.0001678, "INCLINATION": 99.3377, "RA_OF_ASC_NODE": 345.4246, "ARG_OF_PERICENTER": 85.211, "MEAN_ANOMALY": 274.9233, "EPHEMERIS_TYPE": 0, "CLASSIFICATION_TYPE": "U", "NORAD_CAT_ID": 37781, "ELEMENT_SET_NO": 999, "REV_AT_EPOCH": 72067, "BSTAR": 0.00030158, "MEAN_MOTION_DOT": 2.63e-06, "MEAN_MOTION_DDOT": 0}, "tle": {"line1": "1 37781U 11043A   25344.45538704  .00000263  00000+0  30158-3 0  9999", "line2": "2 37781  99.3377 345.4246 0001678  85.2110 274.9233 13.78835644720674"}}, "geometry": {"type": "Point", "coordinates": [158.46460966886968, -37.63649593353386]}}, {"type": "Feature", "properties": {"norad_id": 37791, "name": "RASAT", "group": "resource", "lat": 68.90835920907864, "lon": 52.50686331638784, "alt_km": 645.5989831573725, "timestamp": "2025-12-10T18:56:59.718767+00:00", "meta": {"OBJECT_NAME": "RASAT", "OBJECT_ID": "2011-044D", "EPOCH": "2025-12-10T12:20:37.271328", "MEAN_MOTION": 14.6790589, "ECCENTRICITY": 0.0021942, "INCLINATION": 98.0651, "RA_OF_ASC_NODE": 73.8051, "ARG_OF_PERICENTER": 71.5635, "MEAN_ANOMALY": 345.1941, "EPHEMERIS_TYPE": 0, "CLASSIFICATION_TYPE": "U", "NORAD_CAT_ID": 37791, "ELEMENT_SET_NO": 999, "REV_AT_EPOCH": 76550, "BSTAR": 0.00024658, "MEAN_MOTION_DOT": 1.366e-05, "MEAN_MOTION_DDOT": 0}, "tle": {"line1": "1 37791U 11044D   25344.51432027  .00001366  00000+0  24658-3 0  9992", "line2": "2 37791  98.0651  73.8051 0021942  71.5635 345.1941 14.67905890765506"}}, "geometry": {"type": "Point", "coordinates": [52.50686331638784, 68.90835920907864]}}, {"type": "Feature", "properties": {"norad_id": 37841, "name": "SRMSAT", "group": "resource", "lat": -13.536129163700338, "lon": -18.721170783643508, "alt_km": 850.3580040396755, "timestamp": "2025-12-10T18:56:59.718777+00:00", "meta": {"OBJECT_NAME": "SRMSAT", "OBJECT_ID": "2011-058D", "EPOCH": "2025-12-10T09:33:52.501248", "MEAN_MOTION": 14.11510269, "ECCENTRICITY": 0.0011715, "INCLINATION": 19.9705, "RA_OF_ASC_NODE": 122.1206, "ARG_OF_PERICENTER": 287.5005, "MEAN_ANOMALY": 104.46, "EPHEMERIS_TYPE": 0, "CLASSIFICATION_TYPE": "U", "NORAD_CAT_ID": 37841, "ELEMENT_SET_NO": 999, "REV_AT_EPOCH": 73111, "BSTAR": 0.00014098, "MEAN_MOTION_DOT": 5.25e-06, "MEAN_MOTION_DDOT": 0}, "tle": {"line1": "1 37841U 11058D   25344.39852432  .00000525  00000+0  14098-3 0  9998", "line2": "2 37841  19.9705 122.1206 0011715 287.5005 104.4600 14.11510269731110"}}, "geometry": {"type": "Point", "coordinates": [-18.721170783643508, -13.536129163700338]}}, {"type": "Feature", "properties": {"norad_id": 38012, "name": "PLEIADES 1A", "group": "resource", "lat": -67.45559139481465, "lon": 77.86762434242017, "alt_km": 705.8180168489844, "timestamp": "2025-12-10T18:56:59.718787+00:00", "meta": {"OBJECT_NAME": "PLEIADES 1A", "OBJECT_ID": "2011-076F", "EPOCH": "2025-12-10T11:17:20.271264", "MEAN_MOTION": 14.58558632, "ECCENTRICITY": 0.0001348, "INCLINATION": 98.1823, "RA_OF_ASC_NODE": 57.2738, "ARG_OF_PERICENTER": 73.1692, "MEAN_ANOMALY": 342.8653, "EPHEMERIS_TYPE": 0, "CLASSIFICATION_TYPE": "U", "NORAD_CAT_ID": 38012, "ELEMENT_SET_NO": 999, "REV_AT_EPOCH": 74448, "BSTAR": 0.00019309, "MEAN_MOTION_DOT": 8.52e-06, "MEAN_MOTION_DDOT": 0}, "tle": {"line1": "1 38012U 11076F   25344.47037351  .00000852  00000+0  19309-3 0  9996", "line2": "2 38012  98.1823  57.2738 0001348  73.1692 342.8653 14.58558632744488"}}, "geometry": {"type": "Point", "coordinates": [77.86762434242017, -67.45559139481465]}}, {"type": "Feature", "properties": {"norad_id": 38038, "name": "ZIYUAN 1-02C (ZY 1-02C)", "group": "resource", "lat": -16.994588625624115, "lon": 53.43775604704571, "alt_km": 774.6865001567257, "timestamp": "2025-12-10T18:56:59.718797+00:00", "meta": {"OBJECT_NAME": "ZIYUAN 1-02C (ZY 1-02C)", "OBJECT_ID": "2011-079A", "EPOCH": "2025-12-10T10:43:43.248576", "MEAN_MOTION": 14.38008479, "ECCENTRICITY": 0.0007035, "INCLINATION": 98.4332, "RA_OF_ASC_NODE": 50.5028, "ARG_OF_PERICENTER": 144.2197, "MEAN_ANOMALY": 226.4296, "EPHEMERIS_TYPE": 0, "CLASSIFICATION_TYPE": "U", "NORAD_CAT_ID": 38038, "ELEMENT_SET_NO": 999, "REV_AT_EPOCH": 73208, "BSTAR": 0.00031234, "MEAN_MOTION_DOT": 9.02e-06, "MEAN_MOTION_DDOT": 0}, "tle": {"line1": "1 38038U 11079A   25344.44702834  .00000902  00000+0  31234-3 0  9996", "line2": "2 38038  98.4332  50.5028 0007035 144.2197 226.4296 14.38008479732081"}}, "geometry": {"type": "Point", "coordinates": [53.43775604704571, -16.994588625624115]}}, {"type": "Feature", "properties": {"norad_id": 38046, "name": "ZIYUAN 3-1 (ZY 3-1)", "group": "resource", "lat": -54.83925490134668, "lon": 61.46449733419875, "alt_km": 370.55197992672674, "timestamp": "2025-12-10T18:56:59.718807+00:00", "meta": {"OBJECT_NAME": "ZIYUAN 3-1 (ZY 3-1)", "OBJECT_ID": "2012-001A", "EPOCH": "2025-12-10T16:07:23.249568", "MEAN_MOTION": 15.68140977, "ECCENTRICITY": 0.0001905, "INCLINATION": 97.1753, "RA_OF_ASC_NODE": 51.0411, "ARG_OF_PERICENTER": 2.2419, "MEAN_ANOMALY": 357.8851, "EPHEMERIS_TYPE": 0, "CLASSIFICATION_TYPE": "U", "NORAD_CAT_ID": 38046, "ELEMENT_SET_NO": 999, "REV_AT_EPOCH": 77464, "BSTAR": 0.00086097, "MEAN_MOTION_DOT": 0.00096562, "MEAN_MOTION_DDOT": 0}, "tle": {"line1": "1 38046U 12001A   25344.67179687  .00096562  00000+0  86097-3 0  9994", "line2": "2 38046  97.1753  51.0411 0001905   2.2419 357.8851 15.68140977774643"}}, "geometry": {"type": "Point", "coordinates": [61.46449733419875, -54.83925490134668]}}, {"type": "Feature", "properties": {"norad_id": 38338, "name": "ARIRANG-3 (KOMPSAT-3)", "group": "resource", "lat": 13.311309466657782, "lon": 121.35133980145224, "alt_km": 692.6571036655369, "timestamp": "2025-12-10T18:56:59.718817+00:00", "meta": {"OBJECT_NAME": "ARIRANG-3 (KOMPSAT-3)", "OBJECT_ID": "2012-025B", "EPOCH": "2025-12-10T11:37:09.595776", "MEAN_MOTION": 14.61708069, "ECCENTRICITY": 0.0005518, "INCLINATION": 98.3319, "RA_OF_ASC_NODE": 299.0566, "ARG_OF_PERICENTER": 346.2912, "MEAN_ANOMALY": 13.8138, "EPHEMERIS_TYPE": 0, "CLASSIFICATION_TYPE": "U", "NORAD_CAT_ID": 38338, "ELEMENT_SET_NO": 999, "REV_AT_EPOCH": 72377, "BSTAR": 0.00020986, "MEAN_MOTION_DOT": 9.97e-06, "MEAN_MOTION_DDOT": 0}, "tle": {"line1": "1 38338U 12025B   25344.48413884  .00000997  00000+0  20986-3 0  9995", "line2": "2 38338  98.3319 299.0566 0005518 346.2912  13.8138 14.61708069723775"}}, "geometry": {"type": "Point", "coordinates": [121.35133980145224, 13.311309466657782]}}, {"type": "Feature", "properties": {"norad_id": 38709, "name": "EXACTVIEW-1 (ADS-1B)", "group": "resource", "lat": 60.9163023559195, "lon": 76.65386874331696, "alt_km": 799.2375492369729, "timestamp": "2025-12-10T18:56:59.718827+00:00", "meta": {"OBJECT_NAME": "EXACTVIEW-1 (ADS-1B)", "OBJECT_ID": "2012-039C", "EPOCH": "2025-12-10T06:51:45.471744", "MEAN_MOTION": 14.24906576, "ECCENTRICITY": 0.0010796, "INCLINATION": 98.9635, "RA_OF_ASC_NODE": 92.6245, "ARG_OF_PERICENTER": 1.3591, "MEAN_ANOMALY": 358.7615, "EPHEMERIS_TYPE": 0, "CLASSIFICATION_TYPE": "U", "NORAD_CAT_ID": 38709, "ELEMENT_SET_NO": 999, "REV_AT_EPOCH": 69580, "BSTAR": 0.00014505, "MEAN_MOTION_DOT": 2.93e-06, "MEAN_MOTION_DDOT": 0}, "tle": {"line1": "1 38709U 12039C   25344.28594296  .00000293  00000+0  14505-3 0  9996", "line2": "2 38709  98.9635  92.6245 0010796   1.3591 358.7615 14.24906576695806"}}, "geometry": {"type": "Point", "coordinates": [76.65386874331696, 60.9163023559195]}}]}